[{"OBJECT_NAME":"NUSAT-39 (TIKVAH ALPER)","OBJECT_ID":"2023-054Z","EPOCH":"2026-03-09T21:28:29.697024","MEAN_MOTION":15.41540471,"ECCENTRICITY":0.0007232,"INCLINATION":97.3191,"RA_OF_ASC_NODE":338.0552,"ARG_OF_PERICENTER":52.8862,"MEAN_ANOMALY":307.3045,"EPHEMERIS_TYPE":0,"CLASSIFICATION_TYPE":"U","NORAD_CAT_ID":56201,"ELEMENT_SET_NO":999,"REV_AT_EPOCH":16313,"BSTAR":0.00071343527,"MEAN_MOTION_DOT":0.00029967,"MEAN_MOTION_DDOT":0},{"OBJECT_NAME":"STARLINK-30402","OBJECT_ID":"2023-138V","EPOCH":"2026-03-09T22:00:01.999584","MEAN_MOTION":15.25118124,"ECCENTRICITY":0.00016397,"INCLINATION":42.9996,"RA_OF_ASC_NODE":232.7467,"ARG_OF_PERICENTER":315.8136,"MEAN_ANOMALY":84.1579,"EPHEMERIS_TYPE":0,"CLASSIFICATION_TYPE":"U","NORAD_CAT_ID":57827,"ELEMENT_SET_NO":999,"REV_AT_EPOCH":572,"BSTAR":0.035382216,"MEAN_MOTION_DOT":0.00981389,"MEAN_MOTION_DDOT":0}]
